{"type": "FeatureCollection", "features": [ {"type": "Feature", "properties": {"norad_id": 40118, "name": "GAOFEN-2", "group": "resource", "lat": 24.386693008683725, "lon": -122.53471760518104, "alt_km": 624.0989306199563, "timestamp": "2025-12-20T14:38:01.615628+00:00", "meta": {"OBJECT_NAME": "GAOFEN-2", "OBJECT_ID": "2014-049A", "EPOCH": "2025-12-20T07:26:52.861920", "MEAN_MOTION": 14.80619559, "ECCENTRICITY": 0.00087118, "INCLINATION": 98.0381, "RA_OF_ASC_NODE": 53.4923, "ARG_OF_PERICENTER": 92.0535, "MEAN_ANOMALY": 268.1675, "EPHEMERIS_TYPE": 0, "CLASSIFICATION_TYPE": "U", "NORAD_CAT_ID": 40118, "ELEMENT_SET_NO": 999, "REV_AT_EPOCH": 61276, "BSTAR": 1.9318719e-05, "MEAN_MOTION_DOT": 9.5e-07, "MEAN_MOTION_DDOT": 0}, "tle": {"line1": "1 40118U 14049A   25354.31033405  .00000095  00000+0  19319-4 0  9990", "line2": "2 40118  98.0381  53.4923 0008711  92.0535 268.1675 14.80619559612767"}}, "geometry": {"type": "Point", "coordinates": [-122.53471760518104, 24.386693008683725]}}, {"type": "Feature", "properties": {"norad_id": 40143, "name": "YAOGAN-21", "group": "resource", "lat": -75.52043593561767, "lon": -171.61656495697855, "alt_km": 504.940383076284, "timestamp": "2025-12-20T14:38:01.615639+00:00", "meta": {"OBJECT_NAME": "YAOGAN-21", "OBJECT_ID": "2014-053A", "EPOCH": "2025-12-20T07:12:10.845792", "MEAN_MOTION": 15.23746517, "ECCENTRICITY": 0.00090027, "INCLINATION": 97.175, "RA_OF_ASC_NODE": 37.2849, "ARG_OF_PERICENTER": 17.949, "MEAN_ANOMALY": 342.2064, "EPHEMERIS_TYPE": 0, "CLASSIFICATION_TYPE": "U", "NORAD_CAT_ID": 40143, "ELEMENT_SET_NO": 999, "REV_AT_EPOCH": 62769, "BSTAR": 8.8193005e-05, "MEAN_MOTION_DOT": 2.054e-05, "MEAN_MOTION_DDOT": 0}, "tle": {"line1": "1 40143U 14053A   25354.30012553  .00002054  00000+0  88193-4 0  9996", "line2": "2 40143  97.1750  37.2849 0009002  17.9490 342.2064 15.23746517627699"}}, "geometry": {"type": "Point", "coordinates": [-171.61656495697855, -75.52043593561767]}}, {"type": "Feature", "properties": {"norad_id": 40275, "name": "YAOGAN-22", "group": "resource", "lat": -35.357616896386965, "lon": 145.88136209720955, "alt_km": 1208.309304203216, "timestamp": "2025-12-20T14:38:01.615649+00:00", "meta": {"OBJECT_NAME": "YAOGAN-22", "OBJECT_ID": "2014-063A", "EPOCH": "2025-12-20T05:41:26.616768", "MEAN_MOTION": 13.15522949, "ECCENTRICITY": 0.00060202, "INCLINATION": 100.7427, "RA_OF_ASC_NODE": 137.7626, "ARG_OF_PERICENTER": 230.0311, "MEAN_ANOMALY": 130.0272, "EPHEMERIS_TYPE": 0, "CLASSIFICATION_TYPE": "U", "NORAD_CAT_ID": 40275, "ELEMENT_SET_NO": 999, "REV_AT_EPOCH": 53628, "BSTAR": 9.70656e-07, "MEAN_MOTION_DOT": -4.6e-07, "MEAN_MOTION_DDOT": 0}, "tle": {"line1": "1 40275U 14063A   25354.23711362 -.00000046  00000+0  97066-6 0  9990", "line2": "2 40275 100.7427 137.7626 0006020 230.0311 130.0272 13.15522949536281"}}, "geometry": {"type": "Point", "coordinates": [145.88136209720955, -35.357616896386965]}}, {"type": "Feature", "properties": {"norad_id": 40298, "name": "ASNARO", "group": "resource", "lat": -8.4168626439397, "lon": -110.73189348845769, "alt_km": 510.87330463435137, "timestamp": "2025-12-20T14:38:01.615659+00:00", "meta": {"OBJECT_NAME": "ASNARO", "OBJECT_ID": "2014-070A", "EPOCH": "2025-12-20T05:54:22.879296", "MEAN_MOTION": 15.19637468, "ECCENTRICITY": 0.00057535, "INCLINATION": 97.3653, "RA_OF_ASC_NODE": 70.01, "ARG_OF_PERICENTER": 102.0202, "MEAN_ANOMALY": 258.1678, "EPHEMERIS_TYPE": 0, "CLASSIFICATION_TYPE": "U", "NORAD_CAT_ID": 40298, "ELEMENT_SET_NO": 999, "REV_AT_EPOCH": 61683, "BSTAR": 0.00026949495, "MEAN_MOTION_DOT": 5.679e-05, "MEAN_MOTION_DDOT": 0}, "tle": {"line1": "1 40298U 14070A   25354.24609814  .00005679  00000+0  26949-3 0  9997", "line2": "2 40298  97.3653  70.0100 0005753 102.0202 258.1678 15.19637468616834"}}, "geometry": {"type": "Point", "coordinates": [-110.73189348845769, -8.4168626439397]}}, {"type": "Feature", "properties": {"norad_id": 40310, "name": "YAOGAN-24", "group": "resource", "lat": 13.160817642307562, "lon": 123.831053606807, "alt_km": 644.5239004220439, "timestamp": "2025-12-20T14:38:01.615669+00:00", "meta": {"OBJECT_NAME": "YAOGAN-24", "OBJECT_ID": "2014-072A", "EPOCH": "2025-12-20T06:26:23.034624", "MEAN_MOTION": 14.76191854, "ECCENTRICITY": 0.00150839, "INCLINATION": 98.1224, "RA_OF_ASC_NODE": 125.4016, "ARG_OF_PERICENTER": 115.5402, "MEAN_ANOMALY": 244.7368, "EPHEMERIS_TYPE": 0, "CLASSIFICATION_TYPE": "U", "NORAD_CAT_ID": 40310, "ELEMENT_SET_NO": 999, "REV_AT_EPOCH": 59732, "BSTAR": 0.0001299626, "MEAN_MOTION_DOT": 8.47e-06, "MEAN_MOTION_DDOT": 0}, "tle": {"line1": "1 40310U 14072A   25354.26832216  .00000847  00000+0  12996-3 0  9999", "line2": "2 40310  98.1224 125.4016 0015083 115.5402 244.7368 14.76191854597326"}}, "geometry": {"type": "Point", "coordinates": [123.831053606807, 13.160817642307562]}}, {"type": "Feature", "properties": {"norad_id": 40336, "name": "CBERS 4", "group": "resource", "lat": 42.984290129755685, "lon": 44.50887198038818, "alt_km": 769.1009095500285, "timestamp": "2025-12-20T14:38:01.615679+00:00", "meta": {"OBJECT_NAME": "CBERS 4", "OBJECT_ID": "2014-079A", "EPOCH": "2025-12-20T06:04:02.644032", "MEAN_MOTION": 14.3552035, "ECCENTRICITY": 0.00018135, "INCLINATION": 98.3305, "RA_OF_ASC_NODE": 52.013, "ARG_OF_PERICENTER": 104.3983, "MEAN_ANOMALY": 255.7405, "EPHEMERIS_TYPE": 0, "CLASSIFICATION_TYPE": "U", "NORAD_CAT_ID": 40336, "ELEMENT_SET_NO": 999, "REV_AT_EPOCH": 57828, "BSTAR": 5.6050238e-05, "MEAN_MOTION_DOT": 1.19e-06, "MEAN_MOTION_DDOT": 0}, "tle": {"line1": "1 40336U 14079A   25354.25280838  .00000119  00000+0  56050-4 0  9992", "line2": "2 40336  98.3305  52.0130 0001813 104.3983 255.7405 14.35520350578284"}}, "geometry": {"type": "Point", "coordinates": [44.50887198038818, 42.984290129755685]}}, {"type": "Feature", "properties": {"norad_id": 40362, "name": "YAOGAN-26", "group": "resource", "lat": 56.21281841896697, "lon": -15.674635614254122, "alt_km": 439.82198285245795, "timestamp": "2025-12-20T14:38:01.615689+00:00", "meta": {"OBJECT_NAME": "YAOGAN-26", "OBJECT_ID": "2014-088A", "EPOCH": "2025-12-20T06:35:17.863584", "MEAN_MOTION": 15.3955324, "ECCENTRICITY": 0.00052217, "INCLINATION": 97.0634, "RA_OF_ASC_NODE": 354.6813, "ARG_OF_PERICENTER": 7.4771, "MEAN_ANOMALY": 352.6553, "EPHEMERIS_TYPE": 0, "CLASSIFICATION_TYPE": "U", "NORAD_CAT_ID": 40362, "ELEMENT_SET_NO": 999, "REV_AT_EPOCH": 61010, "BSTAR": 0.00041577116, "MEAN_MOTION_DOT": 0.0001629, "MEAN_MOTION_DDOT": 0}, "tle": {"line1": "1 40362U 14088A   25354.27451231  .00016290  00000+0  41577-3 0  9994", "line2": "2 40362  97.0634 354.6813 0005221   7.4771 352.6553 15.39553240610106"}}, "geometry": {"type": "Point", "coordinates": [-15.674635614254122, 56.21281841896697]}}, {"type": "Feature", "properties": {"norad_id": 40376, "name": "SMAP", "group": "resource", "lat": -45.73925189084326, "lon": 7.6538800000337135, "alt_km": 689.7480262879444, "timestamp": "2025-12-20T14:38:01.615699+00:00", "meta": {"OBJECT_NAME": "SMAP", "OBJECT_ID": "2015-003A", "EPOCH": "2025-12-20T03:21:28.281888", "MEAN_MOTION": 14.63353584, "ECCENTRICITY": 0.00012233, "INCLINATION": 98.1288, "RA_OF_ASC_NODE": 358.7571, "ARG_OF_PERICENTER": 91.9044, "MEAN_ANOMALY": 268.2298, "EPHEMERIS_TYPE": 0, "CLASSIFICATION_TYPE": "U", "NORAD_CAT_ID": 40376, "ELEMENT_SET_NO": 999, "REV_AT_EPOCH": 58143, "BSTAR": 7.9512183e-05, "MEAN_MOTION_DOT": 3.64e-06, "MEAN_MOTION_DDOT": 0}, "tle": {"line1": "1 40376U 15003A   25354.13991067  .00000364  00000+0  79512-4 0  9994", "line2": "2 40376  98.1288 358.7571 0001223  91.9044 268.2298 14.63353584581439"}}, "geometry": {"type": "Point", "coordinates": [7.6538800000337135, -45.73925189084326]}}, {"type": "Feature", "properties": {"norad_id": 40536, "name": "KOMPSAT-3A", "group": "resource", "lat": 49.9515428433131, "lon": 158.6296231554571, "alt_km": 425.7205003727604, "timestamp": "2025-12-20T14:38:01.615710+00:00", "meta": {"OBJECT_NAME": "KOMPSAT-3A", "OBJECT_ID": "2015-014A", "EPOCH": "2025-12-20T06:17:59.466048", "MEAN_MOTION": 15.44204688, "ECCENTRICITY": 0.00054265, "INCLINATION": 97.6791, "RA_OF_ASC_NODE": 329.0255, "ARG_OF_PERICENTER": 110.1178, "MEAN_ANOMALY": 250.0654, "EPHEMERIS_TYPE": 0, "CLASSIFICATION_TYPE": "U", "NORAD_CAT_ID": 40536, "ELEMENT_SET_NO": 999, "REV_AT_EPOCH": 59411, "BSTAR": 0.00030492557, "MEAN_MOTION_DOT": 0.00013914, "MEAN_MOTION_DDOT": 0}, "tle": {"line1": "1 40536U 15014A   25354.26249382  .00013914  00000+0  30493-3 0  9993", "line2": "2 40536  97.6791 329.0255 0005426 110.1178 250.0654 15.44204688594115"}}, "geometry": {"type": "Point", "coordinates": [158.6296231554571, 49.9515428433131]}}, {"type": "Feature", "properties": {"norad_id": 40697, "name": "SENTINEL-2A", "group": "resource", "lat": -18.134505210484942, "lon": 69.86421779112504, "alt_km": 794.213592427388, "timestamp": "2025-12-20T14:38:01.615720+00:00", "meta": {"OBJECT_NAME": "SENTINEL-2A", "OBJECT_ID": "2015-028A", "EPOCH": "2025-12-20T06:19:39.593280", "MEAN_MOTION": 14.30807859, "ECCENTRICITY": 0.00010647, "INCLINATION": 98.5745, "RA_OF_ASC_NODE": 66.6905, "ARG_OF_PERICENTER": 89.3023, "MEAN_ANOMALY": 270.8282, "EPHEMERIS_TYPE": 0, "CLASSIFICATION_TYPE": "U", "NORAD_CAT_ID": 40697, "ELEMENT_SET_NO": 999, "REV_AT_EPOCH": 54814, "BSTAR": 3.9948564e-05, "MEAN_MOTION_DOT": 6.1e-07, "MEAN_MOTION_DDOT": 0}, "tle": {"line1": "1 40697U 15028A   25354.26365270  .00000061  00000+0  39949-4 0  9996", "line2": "2 40697  98.5745  66.6905 0001064  89.3023 270.8282 14.30807859548140"}}, "geometry": {"type": "Point", "coordinates": [69.86421779112504, -18.134505210484942]}}]}